OBJECT_NAME,OBJECT_ID,EPOCH,MEAN_MOTION,ECCENTRICITY,INCLINATION,RA_OF_ASC_NODE,ARG_OF_PERICENTER,MEAN_ANOMALY,EPHEMERIS_TYPE,CLASSIFICATION_TYPE,NORAD_CAT_ID,ELEMENT_SET_NO,REV_AT_EPOCH,BSTAR,MEAN_MOTION_DOT,MEAN_MOTION_DDOT
KUZGTU 1 (RS47S),2023-091AV,2026-07-14T13:33:40.910976,15.30461784,.00101269,97.5054,260.3329,8.5469,351.5942,0,U,57217,999,16856,.22833783E-3,.6657E-4,0
SONATE-2,2024-043Q,2026-07-14T09:41:50.618976,15.60784505,.0006864,97.5552,347.5164,108.7860,251.4142,0,U,59112,999,13213,.35358083E-3,.29401E-3,0
MESAT1,2024-125G,2026-07-14T14:30:35.569440,15.66383054,.00109261,97.2247,53.7705,114.2072,246.0332,0,U,60209,999,11385,.4411311E-3,.45892E-3,0
OOV-CUBE (TUBSAT-30),2024-128F,2026-07-14T09:39:01.246464,15.02871955,.00412187,61.9937,130.6682,139.8475,220.5674,0,U,60240,999,11020,.90398228E-4,.1023E-4,0
COLIBRI-S (RS67S),2024-199M,2026-07-14T14:15:33.564672,15.48833485,.00089253,97.2952,69.7147,164.1979,195.9552,0,U,61746,999,14165,.24918811E-3,.13337E-3,0
HORS 3 (RS81S),2024-199U,2026-07-14T14:45:55.120320,15.56876883,.00070817,97.2935,72.0352,157.4241,202.7327,0,U,61753,999,14182,.35228045E-3,.2527E-3,0
HORS 4 (RS82S),2024-199V,2026-07-14T14:45:27.512064,15.62344259,.00069664,97.2877,73.4279,149.9416,210.2243,0,U,61754,999,14192,.40181686E-3,.35529E-3,0
SIT-2086,2024-199AF,2026-07-14T15:02:36.428928,15.54990326,.00081689,97.2890,72.4284,145.9371,214.2409,0,U,61764,999,13869,.38412439E-3,.25722E-3,0
HYPERVIEW 1G (RS66S),2024-199AP,2026-07-13T23:29:07.920096,15.84916828,.00082465,97.2813,76.2153,151.3914,208.7811,0,U,61772,999,13890,.74626479E-3,.176797E-2,0
ALTAIR (RS65S),2024-199AW,2026-07-14T13:56:47.536800,15.37498413,.00119539,97.2993,64.7559,198.7525,161.3281,0,U,61779,999,14132,.17756542E-3,.6463E-4,0
ASRTU-1 (AO-123),2024-199AY,2026-07-14T14:15:23.655456,15.36048412,.00129391,97.2964,64.0199,202.9490,157.1178,0,U,61781,999,13813,.12909585E-3,.4462E-4,0
SAMSAT-IONOSPHERE (RS75S),2024-199BB,2026-07-14T14:20:52.378080,15.60083250,.00091593,97.2899,72.1737,162.2760,197.8819,0,U,61784,999,14183,.40303094E-3,.32687E-3,0
RTU MIREA 1 (RS51S),2024-199BC,2026-07-14T14:52:32.289024,15.64223243,.00092576,97.2884,73.1823,156.8571,203.3107,0,U,61785,999,13875,.4529119E-3,.43192E-3,0
TEVEL2-4,2025-052D,2026-07-14T14:59:56.404896,15.35553666,.00035976,97.3873,92.0758,52.8081,307.3490,0,U,63213,999,7432,.29976919E-3,.10282E-3,0
TEVEL2-5,2025-052E,2026-07-14T10:52:31.524960,15.35363898,.0003666,97.3870,91.8435,54.7480,305.4106,0,U,63214,999,7429,.33521463E-3,.1144E-3,0
TEVEL2-6,2025-052F,2026-07-14T11:11:10.871520,15.35326910,.0003706,97.3875,91.8412,57.9315,302.2288,0,U,63215,999,7429,.32615087E-3,.11115E-3,0
TEVEL2-1,2025-052H,2026-07-14T15:14:51.352512,15.34761887,.0004319,97.3847,91.6018,61.6960,298.4718,0,U,63217,999,7430,.2955724E-3,.9885E-4,0
TEVEL2-3,2025-052J,2026-07-14T15:05:36.869280,15.34824058,.0004057,97.3851,91.6209,62.8078,297.3578,0,U,63218,999,7430,.29393422E-3,.9849E-4,0
TEVEL2-2,2025-052K,2026-07-14T10:33:23.264640,15.34768971,.00043767,97.3843,91.4091,62.3504,297.8183,0,U,63219,999,7427,.3118402E-3,.10436E-3,0
OTP-2,2025-052AB,2026-07-14T05:02:26.515104,15.24329782,.00082296,97.3839,87.2388,73.7435,286.4707,0,U,63235,999,7398,.16233283E-3,.3902E-4,0
TEVEL2-9,2025-052AD,2026-07-14T12:26:29.671872,15.32718885,.00077292,97.3910,90.8020,59.2943,300.9060,0,U,63237,999,7421,.3060602E-3,.9603E-4,0
TEVEL2-7,2025-052AE,2026-07-14T15:07:15.565728,15.32405359,.0007809,97.3907,90.8176,58.3218,301.8784,0,U,63238,999,7422,.28503749E-3,.8849E-4,0
TEVEL2-8,2025-052AF,2026-07-14T15:19:31.418976,15.32390847,.00078315,97.3909,90.8024,59.3860,300.8153,0,U,63239,999,7422,.29351441E-3,.9111E-4,0
INNOSAT 16 (RS92S7),2025-155C,2026-07-14T14:46:17.694912,15.25734883,.00124832,97.4581,162.6639,90.1822,270.0847,0,U,64878,999,8485,.13323615E-3,.3331E-4,0
GEOSCAN 6 (RS92S6),2025-155D,2026-07-14T13:51:42.402240,15.30647067,.0009957,97.4570,164.2478,83.8806,276.3569,0,U,64879,999,8495,.20486181E-3,.5999E-4,0
GEOSCAN 1 (RS92S1),2025-155E,2026-07-14T15:13:17.789088,15.31295074,.00099062,97.4567,164.4776,83.9556,276.2814,0,U,64880,999,8497,.21894965E-3,.6548E-4,0
239ALFEROV (RS61S),2025-155F,2026-07-14T15:04:50.573568,15.33659968,.00096129,97.4565,165.1288,83.7100,276.5237,0,U,64881,999,8501,.2595144E-3,.8377E-4,0
GEOSCAN 2 (RS92S2),2025-155Q,2026-07-14T14:57:24.598368,15.31552645,.00090712,97.4566,164.6296,74.0865,286.1375,0,U,64890,999,8498,.21347375E-3,.6433E-4,0
GEOSCAN 5 (RS92S5),2025-155R,2026-07-14T14:40:58.939392,15.33965737,.00086526,97.4558,165.2599,88.1908,272.0325,0,U,64891,999,8502,.25935763E-3,.8452E-4,0
GEOSCAN 4 (RS92S4),2025-155S,2026-07-14T14:14:05.537760,15.34133337,.00085832,97.4561,165.2977,88.5066,271.7159,0,U,64892,999,8502,.26933028E-3,.8827E-4,0
