KUZGTU 1 (RS47S)        
1 57217U 23091AV  26195.56505684  .00006657  00000+0  22834-3 0  9994
2 57217  97.5054 260.3329 0010126   8.5469 351.5942 15.30461784168565
SONATE-2                
1 59112U 24043Q   26195.40405809  .00029401  00000+0  35358-3 0  9996
2 59112  97.5552 347.5164 0006864 108.7860 251.4142 15.60784505132137
MESAT1                  
1 60209U 24125G   26195.60457835  .00045892  00000+0  44113-3 0  9995
2 60209  97.2247  53.7705 0010926 114.2072 246.0332 15.66383054113851
OOV-CUBE (TUBSAT-30)    
1 60240U 24128F   26195.40209776  .00001023  00000+0  90398-4 0  9995
2 60240  61.9937 130.6682 0041218 139.8475 220.5674 15.02871955110201
COLIBRI-S (RS67S)       
1 61746U 24199M   26195.59413848  .00013337  00000+0  24919-3 0  9998
2 61746  97.2952  69.7147 0008925 164.1979 195.9552 15.48833485141657
HORS 3 (RS81S)          
1 61753U 24199U   26195.61522130  .00025270  00000+0  35228-3 0  9998
2 61753  97.2935  72.0352 0007081 157.4241 202.7327 15.56876883141824
HORS 4 (RS82S)          
1 61754U 24199V   26195.61490176  .00035529  00000+0  40182-3 0  9996
2 61754  97.2877  73.4279 0006966 149.9416 210.2243 15.62344259141920
SIT-2086                
1 61764U 24199AF  26195.62681052  .00025722  00000+0  38412-3 0  9990
2 61764  97.2890  72.4284 0008168 145.9371 214.2409 15.54990326138694
HYPERVIEW 1G (RS66S)    
1 61772U 24199AP  26194.97856389  .00176797  00000+0  74626-3 0  9999
2 61772  97.2813  76.2153 0008246 151.3914 208.7811 15.84916828138903
ALTAIR (RS65S)          
1 61779U 24199AW  26195.58110575  .00006463  00000+0  17757-3 0  9998
2 61779  97.2993  64.7559 0011953 198.7525 161.3281 15.37498413141321
ASRTU-1 (AO-123)        
1 61781U 24199AY  26195.59402379  .00004462  00000+0  12910-3 0  9991
2 61781  97.2964  64.0199 0012939 202.9490 157.1178 15.36048412138131
SAMSAT-IONOSPHERE (RS7*)
1 61784U 24199BB  26195.59782845  .00032687  00000+0  40303-3 0  9990
2 61784  97.2899  72.1737 0009159 162.2760 197.8819 15.60083250141837
RTU MIREA 1 (RS51S)     
1 61785U 24199BC  26195.61981816  .00043192  00000+0  45291-3 0  9997
2 61785  97.2884  73.1823 0009257 156.8571 203.3107 15.64223243138759
TEVEL2-4                
1 63213U 25052D   26195.62495839  .00010282  00000+0  29977-3 0  9997
2 63213  97.3873  92.0758 0003597  52.8081 307.3490 15.35553666 74320
TEVEL2-5                
1 63214U 25052E   26195.45314265  .00011440  00000+0  33521-3 0  9999
2 63214  97.3870  91.8435 0003666  54.7480 305.4106 15.35363898 74293
TEVEL2-6                
1 63215U 25052F   26195.46609805  .00011115  00000+0  32615-3 0  9990
2 63215  97.3875  91.8412 0003706  57.9315 302.2288 15.35326910 74291
TEVEL2-1                
1 63217U 25052H   26195.63531658  .00009885  00000+0  29557-3 0  9993
2 63217  97.3847  91.6018 0004319  61.6960 298.4718 15.34761887 74302
TEVEL2-3                
1 63218U 25052J   26195.62889895  .00009849  00000+0  29393-3 0  9990
2 63218  97.3851  91.6209 0004057  62.8078 297.3578 15.34824058 74304
TEVEL2-2                
1 63219U 25052K   26195.43985260  .00010436  00000+0  31184-3 0  9998
2 63219  97.3843  91.4091 0004376  62.3504 297.8183 15.34768971 74270
OTP-2                   
1 63235U 25052AB  26195.21002911  .00003902  00000+0  16233-3 0  9993
2 63235  97.3839  87.2388 0008229  73.7435 286.4707 15.24329782 73980
TEVEL2-9                
1 63237U 25052AD  26195.51839898  .00009603  00000+0  30606-3 0  9994
2 63237  97.3910  90.8020 0007729  59.2943 300.9060 15.32718885 74218
TEVEL2-7                
1 63238U 25052AE  26195.63004127  .00008849  00000+0  28504-3 0  9992
2 63238  97.3907  90.8176 0007809  58.3218 301.8784 15.32405359 74224
TEVEL2-8                
1 63239U 25052AF  26195.63855809  .00009111  00000+0  29351-3 0  9998
2 63239  97.3909  90.8024 0007831  59.3860 300.8153 15.32390847 74222
INNOSAT 16 (RS92S7)     
1 64878U 25155C   26195.61548258  .00003331  00000+0  13324-3 0  9998
2 64878  97.4581 162.6639 0012483  90.1822 270.0847 15.25734883 84851
GEOSCAN 6 (RS92S6)      
1 64879U 25155D   26195.57757410  .00005999  00000+0  20486-3 0  9995
2 64879  97.4570 164.2478 0009957  83.8806 276.3569 15.30647067 84956
GEOSCAN 1 (RS92S1)      
1 64880U 25155E   26195.63423367  .00006548  00000+0  21895-3 0  9991
2 64880  97.4567 164.4776 0009906  83.9556 276.2814 15.31295074 84976
239ALFEROV (RS61S)      
1 64881U 25155F   26195.62836312  .00008377  00000+0  25951-3 0  9998
2 64881  97.4565 165.1288 0009612  83.7100 276.5237 15.33659968 85014
GEOSCAN 2 (RS92S2)      
1 64890U 25155Q   26195.62320137  .00006433  00000+0  21347-3 0  9997
2 64890  97.4566 164.6296 0009071  74.0865 286.1375 15.31552645 84985
GEOSCAN 5 (RS92S5)      
1 64891U 25155R   26195.61179328  .00008452  00000+0  25936-3 0  9992
2 64891  97.4558 165.2599 0008652  88.1908 272.0325 15.33965737 85025
GEOSCAN 4 (RS92S4)      
1 64892U 25155S   26195.59311965  .00008827  00000+0  26933-3 0  9999
2 64892  97.4561 165.2977 0008583  88.5066 271.7159 15.34133337 85027
